{
    "links": {
        "self": "http://www.neowsapp.com/rest/v1/neo/54017205?api_key=iIulBulltgU6a56xZRHN4H3l9WmuAYTsLGpBGhQ2"
    },
    "id": "54017205",
    "neo_reference_id": "54017205",
    "name": "(2020 KZ3)",
    "designation": "2020 KZ3",
    "nasa_jpl_url": "http://ssd.jpl.nasa.gov/sbdb.cgi?sstr=54017205",
    "absolute_magnitude_h": 26.2,
    "estimated_diameter": {
        "kilometers": {
            "estimated_diameter_min": 0.0152951935,
            "estimated_diameter_max": 0.0342010925
        },
        "meters": {
            "estimated_diameter_min": 15.2951935344,
            "estimated_diameter_max": 34.201092472
        },
        "miles": {
            "estimated_diameter_min": 0.0095039897,
            "estimated_diameter_max": 0.021251567
        },
        "feet": {
            "estimated_diameter_min": 50.1810827555,
            "estimated_diameter_max": 112.2083122258
        }
    },
    "is_potentially_hazardous_asteroid": false,
    "close_approach_data": [
        {
            "close_approach_date": "2009-05-10",
            "close_approach_date_full": "2009-May-10 01:04",
            "epoch_date_close_approach": 1241917440000,
            "relative_velocity": {
                "kilometers_per_second": "15.6833642182",
                "kilometers_per_hour": "56460.1111855211",
                "miles_per_hour": "35082.1174196923"
            },
            "miss_distance": {
                "astronomical": "0.3469572852",
                "lunar": "134.9663839428",
                "kilometers": "51904070.846902524",
                "miles": "32251694.0933378712"
            },
            "orbiting_body": "Earth"
        },
        {
            "close_approach_date": "2012-09-19",
            "close_approach_date_full": "2012-Sep-19 01:41",
            "epoch_date_close_approach": 1348018860000,
            "relative_velocity": {
                "kilometers_per_second": "19.1397081344",
                "kilometers_per_hour": "68902.9492839145",
                "miles_per_hour": "42813.6131258857"
            },
            "miss_distance": {
                "astronomical": "0.4759078981",
                "lunar": "185.1281723609",
                "kilometers": "71194807.871937047",
                "miles": "44238402.2496513686"
            },
            "orbiting_body": "Earth"
        },
        {
            "close_approach_date": "2020-06-08",
            "close_approach_date_full": "2020-Jun-08 20:33",
            "epoch_date_close_approach": 1591648380000,
            "relative_velocity": {
                "kilometers_per_second": "5.082062989",
                "kilometers_per_hour": "18295.4267605487",
                "miles_per_hour": "11368.0667001865"
            },
            "miss_distance": {
                "astronomical": "0.0056745174",
                "lunar": "2.2073872686",
                "kilometers": "848895.716317938",
                "miles": "527479.3385780244"
            },
            "orbiting_body": "Moon"
        },
        {
            "close_approach_date": "2020-06-08",
            "close_approach_date_full": "2020-Jun-08 21:58",
            "epoch_date_close_approach": 1591653480000,
            "relative_velocity": {
                "kilometers_per_second": "5.9757575719",
                "kilometers_per_hour": "21512.7272587748",
                "miles_per_hour": "13367.1721125426"
            },
            "miss_distance": {
                "astronomical": "0.0081806112",
                "lunar": "3.1822577568",
                "kilometers": "1223802.010818144",
                "miles": "760435.3076686272"
            },
            "orbiting_body": "Earth"
        },
        {
            "close_approach_date": "2021-01-13",
            "close_approach_date_full": "2021-Jan-13 00:38",
            "epoch_date_close_approach": 1610498280000,
            "relative_velocity": {
                "kilometers_per_second": "3.5665261437",
                "kilometers_per_hour": "12839.4941173152",
                "miles_per_hour": "7977.9623308395"
            },
            "miss_distance": {
                "astronomical": "0.0661583853",
                "lunar": "25.7356118817",
                "kilometers": "9897153.523519311",
                "miles": "6149806.0292200518"
            },
            "orbiting_body": "Mars"
        }
    ],
    "orbital_data": {
        "orbit_id": "12",
        "orbit_determination_date": "2020-07-14 06:39:40",
        "first_observation_date": "2020-05-22",
        "last_observation_date": "2020-06-05",
        "data_arc_in_days": 14,
        "observations_used": 59,
        "orbit_uncertainty": "7",
        "minimum_orbit_intersection": ".00366672",
        "jupiter_tisserand_invariant": "4.815",
        "epoch_osculation": "2459000.5",
        "eccentricity": ".2717646439037222",
        "semi_major_axis": "1.356711734173467",
        "inclination": "4.602234326070159",
        "ascending_node_longitude": "78.0760335050057",
        "orbital_period": "577.2046201764116",
        "perihelion_distance": ".9880054528558133",
        "perihelion_argument": "212.220163523542",
        "aphelion_distance": "1.725418015491121",
        "perihelion_time": "2459038.019439402565",
        "mean_anomaly": "336.5992895538582",
        "mean_motion": ".6236956313516216",
        "equinox": "J2000",
        "orbit_class": {
            "orbit_class_type": "APO",
            "orbit_class_description": "Near-Earth asteroid orbits which cross the Earth’s orbit similar to that of 1862 Apollo",
            "orbit_class_range": "a (semi-major axis) > 1.0 AU; q (perihelion) < 1.017 AU"
        }
    },
    "is_sentry_object": false
}